[{"OBJECT_NAME":"STARLINK-5895","OBJECT_ID":"2023-037BC","EPOCH":"2026-03-09T22:23:45.381696","MEAN_MOTION":15.07243555,"ECCENTRICITY":0.00049855,"INCLINATION":69.9972,"RA_OF_ASC_NODE":260.028,"ARG_OF_PERICENTER":264.4993,"MEAN_ANOMALY":95.5602,"EPHEMERIS_TYPE":0,"CLASSIFICATION_TYPE":"U","NORAD_CAT_ID":55964,"ELEMENT_SET_NO":999,"REV_AT_EPOCH":16460,"BSTAR":0.00072849946,"MEAN_MOTION_DOT":0.00010921,"MEAN_MOTION_DDOT":0},{"OBJECT_NAME":"STARLINK-35328","OBJECT_ID":"2025-211A","EPOCH":"2026-03-09T17:24:01.537056","MEAN_MOTION":15.05684601,"ECCENTRICITY":0.0001043,"INCLINATION":97.6041,"RA_OF_ASC_NODE":114.0452,"ARG_OF_PERICENTER":76.5947,"MEAN_ANOMALY":283.5396,"EPHEMERIS_TYPE":0,"CLASSIFICATION_TYPE":"U","NORAD_CAT_ID":65652,"ELEMENT_SET_NO":999,"REV_AT_EPOCH":2704,"BSTAR":0.00096051781,"MEAN_MOTION_DOT":0.00013838,"MEAN_MOTION_DDOT":0}]
